{
  "norad_id": 55763,
  "name": "STARLINK-5593",
  "history": [
    {
      "epoch": "2026-03-28T17:06:28.996704Z",
      "apogee_km": 574.3276685415403,
      "perigee_km": 569.7933596833327,
      "latitude_deg": 5.909545278463426e-05,
      "longitude_deg": 113.57986309904935,
      "height_km": 574.549585842716,
      "semi_major_axis_km": 6950.197514112437,
      "eccentricity": 0.0003262,
      "inclination_deg": 70.0009,
      "raan_deg": 196.33,
      "arg_perigee_deg": 268.4507,
      "mean_anomaly_deg": 91.6279,
      "mean_motion_rev_day": 14.98328505
    },
    {
      "epoch": "2026-03-30T05:57:34.536960Z",
      "apogee_km": 574.254801853529,
      "perigee_km": 569.8564419546829,
      "latitude_deg": -4.653882038719771e-05,
      "longitude_deg": -84.57779778076586,
      "height_km": 574.5196368366092,
      "semi_major_axis_km": 6950.192621904105,
      "eccentricity": 0.00031642,
      "inclination_deg": 70.0012,
      "raan_deg": 192.4589,
      "arg_perigee_deg": 269.0541,
      "mean_anomaly_deg": 91.0255,
      "mean_motion_rev_day": 14.98330087
    },
    {
      "epoch": "2026-03-30T10:45:58.669344Z",
      "apogee_km": 574.2550387069077,
      "perigee_km": 569.8526488226498,
      "latitude_deg": 7.877157341283426e-05,
      "longitude_deg": -157.38060808775955,
      "height_km": 574.5203473243402,
      "semi_major_axis_km": 6950.190843764778,
      "eccentricity": 0.00031671,
      "inclination_deg": 70.0011,
      "raan_deg": 191.954,
      "arg_perigee_deg": 268.9898,
      "mean_anomaly_deg": 91.0899,
      "mean_motion_rev_day": 14.98330662
    },
    {
      "epoch": "2026-03-30T17:10:30.717120Z",
      "apogee_km": 574.2285349382892,
      "perigee_km": 569.8656263834946,
      "latitude_deg": -3.961592692647183e-05,
      "longitude_deg": 105.54941271014195,
      "height_km": 574.5120256320331,
      "semi_major_axis_km": 6950.184080660892,
      "eccentricity": 0.00031387,
      "inclination_deg": 70.0012,
      "raan_deg": 191.2808,
      "arg_perigee_deg": 269.0214,
      "mean_anomaly_deg": 91.0585,
      "mean_motion_rev_day": 14.98332849
    },
    {
      "epoch": "2026-03-31T12:24:07.648416Z",
      "apogee_km": 574.1536435086855,
      "perigee_km": 569.9589238542512,
      "latitude_deg": 6.21357916134602e-05,
      "longitude_deg": 174.336648427285,
      "height_km": 574.5359488523814,
      "semi_major_axis_km": 6950.193283681468,
      "eccentricity": 0.00030177,
      "inclination_deg": 70.0015,
      "raan_deg": 189.2615,
      "arg_perigee_deg": 268.577,
      "mean_anomaly_deg": 91.5044,
      "mean_motion_rev_day": 14.98329873
    },
    {
      "epoch": "2026-04-01T12:26:08.831328Z",
      "apogee_km": 574.2359806222657,
      "perigee_km": 569.8837673397793,
      "latitude_deg": -2.2762704837166673e-05,
      "longitude_deg": 170.32036279273024,
      "height_km": 574.4780726511871,
      "semi_major_axis_km": 6950.196873981022,
      "eccentricity": 0.0003131,
      "inclination_deg": 70.0014,
      "raan_deg": 186.7372,
      "arg_perigee_deg": 270.2497,
      "mean_anomaly_deg": 89.8303,
      "mean_motion_rev_day": 14.98328712
    }
  ]
}